*******************************************************************************
Ephemeris / WWW_USER Tue Jun  9 11:12:17 2020 Pasadena, USA      / Horizons
*******************************************************************************
Target body name: Jupiter (599)                   {source: jup310}
Center body name: Solar System Barycenter (0)     {source: DE431mx}
Center-site name: BODY CENTER
*******************************************************************************
Start time      : A.D. 2000-Jul-09 00:00:00.0000 TDB
Stop  time      : A.D. 2024-Jul-09 00:00:00.0000 TDB
Step-size       : 1440 minutes
*******************************************************************************
Center geodetic : 0.00000000,0.00000000,0.0000000 {E-lon(deg),Lat(deg),Alt(km)}
Center cylindric: 0.00000000,0.00000000,0.0000000 {E-lon(deg),Dxy(km),Dz(km)}
Center radii    : (undefined)                                                  
Output units    : AU-D
Output type     : GEOMETRIC cartesian states
Output format   : 3 (position, velocity, LT, range, range-rate)
Reference frame : Ecliptic of J2000.0
*******************************************************************************
            JDTDB,            Calendar Date (TDB),                      X,                      Y,                      Z,                     VX,                     VY,                     VZ,                     LT,                     RG,                     RR,
**************************************************************************************************************************************************************************************************************************************************************************
$$SOE
2452664.500000000, A.D. 2003-Jan-25 00:00:00.0000, -3.578196368077843E+00,  3.916562954794744E+00,  6.382419916822356E-02, -5.665306913006611E-03, -4.733009617721640E-03,  1.463689632964970E-04,  3.064130377537619E-02,  5.305377286847324E+00,  3.286839510734330E-04,
2452665.500000000, A.D. 2003-Jan-26 00:00:00.0000, -3.583857291635937E+00,  3.911826287401302E+00,  6.397052397197374E-02, -5.657091871468709E-03, -4.739705701335588E-03,  1.462943660294696E-04,  3.064319903074552E-02,  5.305705440142072E+00,  3.284507862143089E-04,
2452666.500000000, A.D. 2003-Jan-27 00:00:00.0000, -3.589511358393906E+00,  3.907082811398348E+00,  6.411675047362325E-02, -5.650535399346750E-03, -4.747525768247882E-03,  1.461561881637604E-04,  3.064509774213777E-02,  5.306034191828637E+00,  3.285044287315317E-04,
2452667.500000000, A.D. 2003-Jan-28 00:00:00.0000, -3.595158400285342E+00,  3.902332036989492E+00,  6.426286544507659E-02, -5.644252793270404E-03, -4.754212174347371E-03,  1.460575687918496E-04,  3.064699714881998E-02,  5.306363063900927E+00,  3.295768535415160E-04,
2452668.500000000, A.D. 2003-Jan-29 00:00:00.0000, -3.600799437744723E+00,  3.897573174595435E+00,  6.440882779965294E-02, -5.637068424410585E-03, -4.763214445041377E-03,  1.458872808132425E-04,  3.064889788108832E-02,  5.306692165491341E+00,  3.283349291270126E-04,
2452669.500000000, A.D. 2003-Jan-30 00:00:00.0000, -3.606433041676659E+00,  3.892806517462053E+00,  6.455466343936619E-02, -5.630590469251440E-03, -4.770579051183384E-03,  1.457602215160075E-04,  3.065079558892434E-02,  5.307020743417532E+00,  3.287750088692288E-04,
2452670.500000000, A.D. 2003-Jan-31 00:00:00.0000, -3.612059749919388E+00,  3.888031538895913E+00,  6.470034364940051E-02, -5.622631458376522E-03, -4.778735458718416E-03,  1.456262890433139E-04,  3.065269014102191E-02,  5.307348774944547E+00,  3.276266069132812E-04,
2452671.500000000, A.D. 2003-Feb-01 00:00:00.0000, -3.617679241016972E+00,  3.883249064206942E+00,  6.484590443617706E-02, -5.616176384216263E-03, -4.786902488351355E-03,  1.454731769499627E-04,  3.065458376543030E-02,  5.307676645847161E+00,  3.274923410828352E-04,
2452672.500000000, A.D. 2003-Feb-02 00:00:00.0000, -3.623290975329538E+00,  3.878458242922062E+00,  6.499132266070255E-02, -5.607660035558259E-03, -4.793995768698393E-03,  1.453839276427758E-04,  3.065647072872755E-02,  5.308003363414133E+00,  3.267368479111477E-04,
2452673.500000000, A.D. 2003-Feb-03 00:00:00.0000, -3.628895531384214E+00,  3.873660568603413E+00,  6.513664042784911E-02, -5.601030227904512E-03, -4.801768660987134E-03,  1.452430233043058E-04,  3.065835960242444E-02,  5.308330411756550E+00,  3.267679574562808E-04,
2452674.500000000, A.D. 2003-Feb-04 00:00:00.0000, -3.634492818886237E+00,  3.868855477460935E+00,  6.528184027413858E-02, -5.594251230905248E-03, -4.808401711515707E-03,  1.451476765896600E-04,  3.066024763080041E-02,  5.308657313736184E+00,  3.275272881677359E-04,
2452675.500000000, A.D. 2003-Feb-05 00:00:00.0000, -3.640083911033519E+00,  3.864042516216402E+00,  6.542689265103264E-02, -5.587117010356221E-03, -4.817413383170347E-03,  1.449713579826066E-04,  3.066213713980612E-02,  5.308984472078915E+00,  3.263090412651153E-04,
2452676.500000000, A.D. 2003-Feb-06 00:00:00.0000, -3.645667294136448E+00,  3.859221706007164E+00,  6.557181513583443E-02, -5.580217437870187E-03, -4.824530830042902E-03,  1.448535579535643E-04,  3.066402222668344E-02,  5.309310864753845E+00,  3.266300395117661E-04,
2452677.500000000, A.D. 2003-Feb-07 00:00:00.0000, -3.651243648607779E+00,  3.854392787798903E+00,  6.571658575390592E-02, -5.572134851113878E-03, -4.832726190994337E-03,  1.447137051211286E-04,  3.066590448994535E-02,  5.309636768534925E+00,  3.253531595964870E-04,
2452678.500000000, A.D. 2003-Feb-08 00:00:00.0000, -3.656812473560884E+00,  3.849556552918254E+00,  6.586124140295048E-02, -5.565543564611102E-03, -4.840435145524897E-03,  1.445726460765769E-04,  3.066778525364815E-02,  5.309962412675393E+00,  3.254527801559309E-04,
2452679.500000000, A.D. 2003-Feb-09 00:00:00.0000, -3.662373553479270E+00,  3.844712132372704E+00,  6.600575412700253E-02, -5.556797270308772E-03, -4.847584847733680E-03,  1.444787554792496E-04,  3.066966000246611E-02,  5.310287015370837E+00,  3.244712597003183E-04,
2452680.500000000, A.D. 2003-Feb-10 00:00:00.0000, -3.667927186750132E+00,  3.839861143849222E+00,  6.615017419577472E-02, -5.550191662708485E-03, -4.854921620367524E-03,  1.443466597173367E-04,  3.067153667566378E-02,  5.310611951262296E+00,  3.248255713947367E-04,
2452681.500000000, A.D. 2003-Feb-11 00:00:00.0000, -3.673473530946367E+00,  3.835002941671333E+00,  6.629447741745569E-02, -5.543172089074808E-03, -4.861292821482188E-03,  1.442576693190704E-04,  3.067341317682104E-02,  5.310936857365884E+00,  3.255898552794458E-04,
2452682.500000000, A.D. 2003-Feb-12 00:00:00.0000, -3.679013742366691E+00,  3.830137316456909E+00,  6.643864234356492E-02, -5.536437840049848E-03, -4.870071921503607E-03,  1.440786811424770E-04,  3.067529324062762E-02,  5.311262380323076E+00,  3.248114977861819E-04,
2452683.500000000, A.D. 2003-Feb-13 00:00:00.0000, -3.684546370623892E+00,  3.825263878865010E+00,  6.658267175414367E-02, -5.529462803090620E-03, -4.876969076150216E-03,  1.439645638838258E-04,  3.067716944335028E-02,  5.311587234754316E+00,  3.252236904416535E-04,
2452684.500000000, A.D. 2003-Feb-14 00:00:00.0000, -3.690072187815405E+00,  3.820382527724640E+00,  6.672654771714806E-02, -5.521671785058439E-03, -4.885282949659682E-03,  1.438107614787018E-04,  3.067904444918083E-02,  5.311911881950107E+00,  3.240478935475799E-04,
2452685.500000000, A.D. 2003-Feb-15 00:00:00.0000, -3.695590504149053E+00,  3.815493829904415E+00,  6.687030167534032E-02, -5.515171224019635E-03, -4.892773707390830E-03,  1.436708987596630E-04,  3.068091784379250E-02,  5.312236250171999E+00,  3.243594124529099E-04,
2452686.500000000, A.D. 2003-Feb-16 00:00:00.0000, -3.701101339020606E+00,  3.810596863828379E+00,  6.701390115255935E-02, -5.506458838313171E-03, -4.900325850251954E-03,  1.435575025959818E-04,  3.068278586745407E-02,  5.312559688442709E+00,  3.230864803379397E-04,
2452687.500000000, A.D. 2003-Feb-17 00:00:00.0000, -3.706604571561613E+00,  3.805693216290531E+00,  6.715740123577399E-02, -5.499877086636691E-03, -4.907574705873272E-03,  1.434230652861434E-04,  3.068465460036109E-02,  5.312883249515460E+00,  3.235112885780539E-04,
2452688.500000000, A.D. 2003-Feb-18 00:00:00.0000, -3.712100493991238E+00,  3.800782195373714E+00,  6.730077378498948E-02, -5.492542504061363E-03, -4.914113500149580E-03,  1.433272099344995E-04,  3.068652233116875E-02,  5.313206637080087E+00,  3.239175125059277E-04,
2452689.500000000, A.D. 2003-Feb-19 00:00:00.0000, -3.717590140861522E+00,  3.795863853722436E+00,  6.744400869071056E-02, -5.485978080744932E-03, -4.922886577453556E-03,  1.431414553346344E-04,  3.068839344397215E-02,  5.313530610219122E+00,  3.232624351278981E-04,
2452690.500000000, A.D. 2003-Feb-20 00:00:00.0000, -3.723072099116383E+00,  3.790937483875611E+00,  6.758709735158129E-02, -5.478597031496622E-03, -4.929827205674384E-03,  1.430267753194962E-04,  3.069025930960675E-02,  5.313853674839046E+00,  3.233457067079624E-04,
2452691.500000000, A.D. 2003-Feb-21 00:00:00.0000, -3.728547089453179E+00,  3.786003273045043E+00,  6.773003219961830E-02, -5.470773267860160E-03, -4.938284643599049E-03,  1.428627447084088E-04,  3.069212361068248E-02,  5.314176468563998E+00,  3.220348495137294E-04,
2452692.500000000, A.D. 2003-Feb-22 00:00:00.0000, -3.734014253978523E+00,  3.781061655580562E+00,  6.787284169200725E-02, -5.463932700174206E-03, -4.945509508500498E-03,  1.427313451445911E-04,  3.069398465476842E-02,  5.314498698358647E+00,  3.222907548838082E-04,
2452693.500000000, A.D. 2003-Feb-23 00:00:00.0000, -3.739473852192699E+00,  3.776111864960378E+00,  6.801549570843733E-02, -5.455017219033340E-03, -4.953263196539070E-03,  1.426081367533980E-04,  3.069584032915110E-02,  5.314819998418001E+00,  3.207103703858382E-04,
